SAUDISAT 1C (SO-50)     
1 27607U 02058C   26181.23705801  .00000912  00000+0  12485-3 0  9995
2 27607  64.5520  88.6095 0074955 260.0398  99.2242 14.83073203266395
SAUDISAT 2              
1 28371U 04025F   26181.49202633  .00000247  00000+0  66355-4 0  9990
2 28371  98.5510 181.8179 0023467 255.1982 104.6615 14.56691179167680
SAUDISAT 3              
1 31118U 07012B   26181.38308832  .00000261  00000+0  50280-4 0  9994
2 31118  98.1461 131.7926 0014540 180.2663 179.8538 14.71432867 29683
PISAT                   
1 41784U 16059B   26181.83516519  .00001011  00000+0  17941-3 0  9998
2 41784  97.8181 181.7016 0029544 159.1187 201.1233 14.69007089521745
FLYING LAPTOP           
1 42831U 17042G   26181.84996600  .00002982  00000+0  23574-3 0  9996
2 42831  97.4744 336.8616 0019957  77.9403 282.4057 15.01231687488506
SALSAT                  
1 46495U 20068K   26181.48833811  .00007517  00000+0  26165-3 0  9990
2 46495  97.8843 185.3641 0007929 251.0233 109.0147 15.29983096317397
